OBJECT_NAME,OBJECT_ID,EPOCH,MEAN_MOTION,ECCENTRICITY,INCLINATION,RA_OF_ASC_NODE,ARG_OF_PERICENTER,MEAN_ANOMALY,EPHEMERIS_TYPE,CLASSIFICATION_TYPE,NORAD_CAT_ID,ELEMENT_SET_NO,REV_AT_EPOCH,BSTAR,MEAN_MOTION_DOT,MEAN_MOTION_DDOT
IRIDIUM 138,2017-083B,2026-06-29T09:16:27.189120,14.34217464,.0002072,86.3986,316.6124,87.2916,272.8517,0,U,43071,999,44588,-.77485E-5,-.2E-7,0
IRIDIUM 116,2017-083C,2026-06-29T10:11:15.187776,14.34217591,.0002221,86.3975,316.8846,101.3039,258.8406,0,U,43072,999,44592,-.2166E-5,.14E-6,0
IRIDIUM 130,2017-083D,2026-06-29T11:06:03.061152,14.34217651,.0002021,86.3983,317.1452,97.6305,262.5120,0,U,43073,999,44587,.27086E-4,.96E-6,0
IRIDIUM 151,2017-083E,2026-06-29T10:29:31.182144,14.34217585,.0002094,86.3973,316.9375,94.1632,265.9803,0,U,43074,999,44589,-.121E-5,.16E-6,0
IRIDIUM 134,2017-083F,2026-06-29T11:24:19.046880,14.34217210,.0002167,86.3977,316.9295,95.1298,265.0145,0,U,43075,999,44586,.57447E-4,.181E-5,0
IRIDIUM 137,2017-083G,2026-06-29T10:02:07.238976,14.34217683,.0002536,86.3978,317.0465,100.4876,259.6605,0,U,43076,999,44592,.64213E-6,.22E-6,0
IRIDIUM 141,2017-083H,2026-06-29T09:52:59.183040,14.34217416,.000208,86.3971,316.8793,91.6894,268.4540,0,U,43077,999,44592,-.91957E-5,-.6E-7,0
IRIDIUM 153,2017-083J,2026-06-29T08:44:07.442592,14.34217534,.0002167,86.3967,285.3799,91.3162,268.8282,0,U,43078,999,44702,-.67142E-6,.18E-6,0
IRIDIUM 131,2017-083K,2026-06-29T09:34:43.213728,14.34217300,.0002252,86.3978,317.0709,94.1868,265.9585,0,U,43079,999,44585,.78952E-4,.241E-5,0
IRIDIUM 144,2018-030A,2026-06-29T08:53:15.296352,14.34216619,.0002108,86.3962,285.3061,98.6728,261.4706,0,U,43249,999,43188,.32737E-6,.21E-6,0
IRIDIUM 149,2018-030B,2026-06-29T09:02:23.435232,14.34217721,.0002304,86.3964,285.2703,93.4881,266.6578,0,U,43250,999,43190,.20741E-5,.26E-6,0
IRIDIUM 157,2018-030C,2026-06-29T07:49:19.424064,14.34217575,.0002219,86.3963,285.3445,94.4398,265.7052,0,U,43251,999,43187,.77194E-4,.236E-5,0
IRIDIUM 140,2018-030D,2026-06-29T08:16:43.417344,14.34217250,.0002169,86.3965,285.3494,95.3168,264.8275,0,U,43252,999,43193,.75536E-5,.41E-6,0
IRIDIUM 145,2018-030E,2026-06-29T07:58:26.781024,14.34221683,.0002197,86.3964,285.3268,102.3748,257.7694,0,U,43253,999,43186,.57248E-4,.18E-5,0
IRIDIUM 146,2018-030F,2026-06-29T09:11:31.447104,14.34217728,.0002281,86.3966,285.3181,97.6050,262.5405,0,U,43254,999,43188,.10246E-4,.48E-6,0
IRIDIUM 148,2018-030G,2026-06-29T08:25:51.456000,14.34217456,.000222,86.3963,285.3747,95.6223,264.5226,0,U,43255,999,43191,-.92522E-5,-.6E-7,0
IRIDIUM 142,2018-030H,2026-06-29T07:40:11.447616,14.34217484,.0002185,86.3959,285.2764,99.6911,260.4531,0,U,43256,999,43187,-.62585E-5,.2E-7,0
IRIDIUM 150,2018-030J,2026-06-29T08:34:59.408256,14.34217168,.0002145,86.3966,285.3771,95.4571,264.6870,0,U,43257,999,43190,.25683E-4,.92E-6,0
IRIDIUM 143,2018-030K,2026-06-29T08:07:35.211072,14.34219476,.0002206,86.3968,285.4781,98.0033,262.1413,0,U,43258,999,43183,.78866E-4,.241E-5,0
IRIDIUM 161,2018-047C,2026-06-28T19:35:52.064448,14.43278016,.00025008,86.4483,83.6091,81.1688,278.9796,0,U,43478,999,42681,.28070897E-4,.115E-5,0
IRIDIUM 152,2018-047D,2026-06-28T23:05:58.278048,14.34216617,.00021751,86.3953,83.4088,81.8690,278.2753,0,U,43479,999,42417,-.96018921E-4,-.249E-5,0
IRIDIUM 147,2018-047E,2026-06-28T23:15:06.188832,14.34218255,.00021879,86.3956,83.4118,87.2255,272.9191,0,U,43480,999,42417,.23061742E-4,.84E-6,0
IRIDIUM 110,2018-047F,2026-06-28T23:24:14.329440,14.34217492,.00024484,86.3958,83.5014,77.9270,282.2200,0,U,43481,999,42416,.420681E-6,.21E-6,0
IRIDIUM 162,2018-047G,2026-06-28T19:26:47.725440,14.43280136,.00022661,86.4479,83.5025,83.2246,276.9213,0,U,43482,999,42680,.82736425E-4,.298E-5,0
IRIDIUM 160,2018-061A,2026-06-29T03:07:38.479008,14.34217575,.0002136,86.3949,51.8027,85.7414,274.4026,0,U,43569,999,41508,-.4708E-5,.7E-7,0
IRIDIUM 166,2018-061B,2026-06-28T17:41:22.439328,14.34217809,.00021872,86.3952,51.9179,88.9037,271.2409,0,U,43570,999,41505,.8646536E-5,.44E-6,0
IRIDIUM 158,2018-061C,2026-06-28T16:55:42.454272,14.34217754,.00021337,86.3949,51.9410,84.0050,276.1389,0,U,43571,999,41501,.22081013E-4,.82E-6,0
IRIDIUM 165,2018-061D,2026-06-29T03:35:02.480064,14.34217461,.0002146,86.3952,51.8019,89.8904,270.2538,0,U,43572,999,41510,.81841E-5,.43E-6,0
IRIDIUM 155,2018-061E,2026-06-28T16:37:26.453856,14.34217804,.00020712,86.3949,51.8614,85.2834,274.8599,0,U,43573,999,41500,.8122356E-5,.43E-6,0
IRIDIUM 154,2018-061F,2026-06-28T17:50:30.485760,14.34217614,.00021957,86.3952,51.9744,89.3902,270.7545,0,U,43574,999,41506,.5004183E-5,.34E-6,0
IRIDIUM 163,2018-061G,2026-06-29T03:25:54.494976,14.34217827,.0002187,86.3949,51.7222,83.8633,276.2812,0,U,43575,999,41509,.18252E-4,.71E-6,0
